[{"OBJECT_NAME":"OBJECT F","OBJECT_ID":"2023-072F","EPOCH":"2026-03-09T23:31:37.259904","MEAN_MOTION":15.29470958,"ECCENTRICITY":0.00062878,"INCLINATION":97.5173,"RA_OF_ASC_NODE":265.798,"ARG_OF_PERICENTER":19.0017,"MEAN_ANOMALY":341.1456,"EPHEMERIS_TYPE":0,"CLASSIFICATION_TYPE":"U","NORAD_CAT_ID":56748,"ELEMENT_SET_NO":999,"REV_AT_EPOCH":15460,"BSTAR":0.00043416252,"MEAN_MOTION_DOT":0.00012341,"MEAN_MOTION_DDOT":0},{"OBJECT_NAME":"STARLINK-35301","OBJECT_ID":"2025-221W","EPOCH":"2026-03-09T11:44:08.110464","MEAN_MOTION":15.30210089,"ECCENTRICITY":0.00013354,"INCLINATION":53.1586,"RA_OF_ASC_NODE":89.2053,"ARG_OF_PERICENTER":75.1291,"MEAN_ANOMALY":284.9857,"EPHEMERIS_TYPE":0,"CLASSIFICATION_TYPE":"U","NORAD_CAT_ID":65843,"ELEMENT_SET_NO":999,"REV_AT_EPOCH":2470,"BSTAR":0.0010716537,"MEAN_MOTION_DOT":0.00031525,"MEAN_MOTION_DDOT":0}]
